STARLINK-11702 [DTC]    
1 63752U 25089B   25144.58335648  .00017632  00000+0  10403-3 0  9994
2 63752  42.9969 236.7772 0001578 269.0251 161.3624 15.77843528  4674
STARLINK-11706 [DTC]    
1 63753U 25089C   25144.83335648 -.00011750  00000+0 -64703-4 0  9993
2 63753  42.9969 235.1841 0001668 274.1639 165.7718 15.77870149  4684
STARLINK-11662 [DTC]    
1 63754U 25089D   25144.58335648  .00009408  00000+0  56891-4 0  9990
2 63754  42.9975 236.6410 0001572 272.6884 213.1980 15.77846473  4726
STARLINK-11681 [DTC]    
1 63755U 25089E   25144.58335648  .00023257  00000+0  13622-3 0  9993
2 63755  42.9975 236.5718 0001508 272.6191 241.0178 15.77843064  4673
STARLINK-11688 [DTC]    
1 63756U 25089F   25144.58335648  .00037575  00000+0  21807-3 0  9996
2 63756  42.9982 236.5027 0001548 273.7002 267.6954 15.77831905  4567
STARLINK-11676 [DTC]    
1 63757U 25089G   25144.83335648 -.00012101  00000+0 -66729-4 0  9998
2 63757  42.9983 234.9085 0001679 275.1716 275.7623 15.77868120  4582
STARLINK-11705 [DTC]    
1 63758U 25089H   25144.83335648 -.00022965  00000+0 -12937-3 0  9999
2 63758  42.9989 234.8394 0001707 275.9024 302.7893 15.77869900  4647
STARLINK-11703 [DTC]    
1 63759U 25089J   25144.83335648 -.00031098  00000+0 -17631-3 0  9993
2 63759  42.9989 234.7701 0001650 262.9731 343.4638 15.77877821  4692
STARLINK-11701 [DTC]    
1 63760U 25089K   25144.83335648  .00000217  00000+0  41191-5 0  9992
2 63760  42.9989 234.7017 0001638 263.2966  10.9536 15.77835121  4694
STARLINK-11660 [DTC]    
1 63761U 25089L   25144.58335648 -.00018023  00000+0 -10091-3 0  9994
2 63761  42.9991 236.1580 0001352 275.9238  44.2169 15.77858600  4637
STARLINK-11699 [DTC]    
1 63762U 25089M   25144.83335648 -.00009400  00000+0 -51193-4 0  9991
2 63762  42.9990 234.5644 0001854 278.5613  51.1365 15.77861433  4692
STARLINK-11693 [DTC]    
1 63763U 25089N   25144.83335648  .00010676  00000+0  64126-4 0  9997
2 63763  42.9991 234.4952 0001854 277.4577  79.9808 15.77859417  4589
STARLINK-33760          
1 63764U 25089P   25144.83335648  .00018282  00000+0  44403-3 0  9994
2 63764  43.0000 237.4198 0001315 262.1153 352.2913 15.40689317  4776
STARLINK-33941          
1 63765U 25089Q   25144.83335648 -.01518493  00000+0 -37946-1 0  9999
2 63765  43.0000 237.3633 0001438 263.8925  13.6551 15.42483797  4762
STARLINK-33824          
1 63766U 25089R   25144.58335648 -.00044607  00000+0 -10664-2 0  9991
2 63766  42.9998 238.8917 0000834 272.6085  21.0786 15.40712559  4809
STARLINK-33808          
1 63767U 25089S   25144.58335648 -.01504957  00000+0 -34247-1 0  9994
2 63767  42.9999 238.7674 0001469 277.5464  67.1194 15.45192964  4799
STARLINK-33844          
1 63768U 25089T   25144.83335648 -.00017112  00000+0 -40318-3 0  9992
2 63768  43.0000 237.3901 0001812 274.4337 352.4135 15.40707148  4774
STARLINK-33907          
1 63769U 25089U   25144.58335648 -.01503943  00000+0 -36010-1 0  9990
2 63769  43.0000 238.7832 0001377 271.4750  66.9386 15.43710533  4742
STARLINK-33884          
1 63770U 25089V   25144.83335648 -.01524128  00000+0 -32292-1 0  9996
2 63770  42.9996 237.2652 0001691 272.5383  45.0274 15.47282899  4728
STARLINK-33841          
1 63771U 25089W   25144.83335648 -.01518214  00000+0 -35005-1 0  9991
2 63771  42.9999 237.2899 0001636 270.8406  36.3339 15.44837771  4728
BIOMASS                 
1 63772U 25090A   25142.07413034  .00001188  00000+0  21024-3 0  9996
2 63772  98.0761 329.9868 0001408  88.9543 271.1823 14.69152786  3324
STARLINK-33769          
1 63773U 25089X   25144.58335648 -.01506644  00000+0 -28972-1 0  9994
2 63773  42.9996 238.7037 0001635 281.1651  88.9756 15.49988804  4784
STARLINK-33914          
1 63774U 25089Y   25144.58335648 -.01493384  00000+0 -33278-1 0  9996
2 63774  42.9996 237.3504 0000936 272.8414 282.8270 15.45780397  4808
STARLINK-33932          
1 63775U 25091A   25144.58335648 -.01493785  00000+0 -25912-1 0  9991
2 63775  42.9998 247.5934 0001067 265.2506 327.7653 15.53317189  4746
STARLINK-33930          
1 63776U 25091B   25144.58335648 -.01520577  00000+0 -25951-1 0  9995
2 63776  42.9999 247.5889 0001006 270.5334 324.4004 15.53317429  4693
STARLINK-33911          
1 63777U 25091C   25144.58335648 -.01521868  00000+0 -25974-1 0  9995
2 63777  42.9999 247.5841 0001018 264.3067 332.5433 15.53318710  4699
STARLINK-33938          
1 63778U 25091D   25144.58335648 -.01493898  00000+0 -25915-1 0  9992
2 63778  42.9999 247.5788 0001037 267.5550 331.2128 15.53316601  4787
STARLINK-33881          
1 63779U 25091E   25144.58335648 -.01520424  00000+0 -25947-1 0  9994
2 63779  42.9998 247.5737 0001091 267.9155 332.7689 15.53317939  4699
STARLINK-33846          
1 63780U 25091F   25144.58335648 -.01492933  00000+0 -25896-1 0  9992
2 63780  42.9998 247.5688 0001047 265.8394 336.7614 15.53316727  4741
STARLINK-33883          
1 63781U 25091G   25144.83335648 -.01519559  00000+0 -26703-1 0  9993
2 63781  42.9998 246.0953 0001168 271.7701 292.0341 15.52514000  4691
STARLINK-33842          
1 63782U 25091H   25144.58335648 -.01493612  00000+0 -25910-1 0  9996
2 63782  42.9999 247.5586 0001019 268.0306 338.4058 15.53316166  4780
STARLINK-33892          
1 63783U 25091J   25144.58335648 -.01495008  00000+0 -25934-1 0  9994
2 63783  42.9998 247.5540 0001233 274.0119 334.3403 15.53317586  4693
STARLINK-33933          
1 63784U 25091K   25144.58335648 -.01519013  00000+0 -25921-1 0  9994
2 63784  42.9999 247.5495 0001046 266.9867 343.2820 15.53317711  4801
STARLINK-33906          
1 63785U 25091L   25144.58335648 -.01493846  00000+0 -25913-1 0  9991
2 63785  42.9998 247.5442 0001080 267.7633 344.4228 15.53317260  4647
STARLINK-33923          
1 63786U 25091M   25144.58335648 -.01518967  00000+0 -25920-1 0  9992
2 63786  42.9999 247.5397 0001052 266.0631 348.0394 15.53317798  4647
STARLINK-33947          
1 63787U 25091N   25144.83335648 -.01520127  00000+0 -26713-1 0  9993
2 63787  42.9998 246.0665 0001121 270.4736 304.8308 15.52515412  4693
STARLINK-33882          
1 63788U 25091P   25144.83335648 -.01519474  00000+0 -26701-1 0  9994
2 63788  42.9998 246.0617 0001149 266.7988 310.4238 15.52514503  4693
STARLINK-33875          
1 63789U 25091Q   25144.58335648 -.01519300  00000+0 -25926-1 0  9993
2 63789  42.9998 247.5241 0001129 265.4437 354.4113 15.53317480  4692
STARLINK-33869          
1 63790U 25091R   25144.58335648 -.01520103  00000+0 -25941-1 0  9995
2 63790  42.9998 247.5202 0001060 266.0453 355.7259 15.53318147  4641
STARLINK-33935          
1 63791U 25091S   25144.58335648 -.01520263  00000+0 -25944-1 0  9996
2 63791  42.9998 247.5150 0001081 270.0318 353.6566 15.53317994  4807
STARLINK-33916          
1 63792U 25091T   25144.58335648 -.01493622  00000+0 -25908-1 0  9995
2 63792  42.9998 247.5099 0001152 263.2098   2.3959 15.53317285  4692
STARLINK-33925          
1 63793U 25091U   25144.58335648 -.01494141  00000+0 -25918-1 0  9994
2 63793  42.9998 247.5056 0001078 269.6741 357.8469 15.53318069  4806
STARLINK-33870          
1 63794U 25091V   25144.58335648 -.01519537  00000+0 -25931-1 0  9997
2 63794  42.9998 247.5014 0001091 269.6142 359.8261 15.53317220  4698
STARLINK-33867          
1 63795U 25091W   25144.58335648 -.01521118  00000+0 -25959-1 0  9996
2 63795  42.9998 247.4966 0001112 267.5243   3.8319 15.53318908  4703
STARLINK-33918          
1 63796U 25091X   25144.58335648 -.01521184  00000+0 -25960-1 0  9992
2 63796  42.9998 247.4924 0001154 268.5433   4.7302 15.53318827  4742
STARLINK-33712          
1 63797U 25091Y   25144.83335648  .00057903  00000+0  13842-2 0  9998
2 63797  42.9994 248.6042 0001442 273.3509 352.1497 15.40671354  4660
STARLINK-33827          
1 63798U 25091Z   25144.58335648 -.01521548  00000+0 -25967-1 0  9995
2 63798  42.9998 247.4811 0001117 269.1887   7.9189 15.53318970  4699
STARLINK-33899          
1 63799U 25091AA  25144.58335648 -.01520348  00000+0 -25945-1 0  9999
2 63799  42.9998 247.4764 0001102 267.4928  11.5316 15.53318449  4805
STARLINK-33900          
1 63800U 25091AB  25144.58335648 -.01520301  00000+0 -25944-1 0  9990
2 63800  42.9998 247.4713 0001120 267.8257  13.1158 15.53318442  4806
STARLINK-33975          
1 63802U 25091AC  25144.58335648 -.01521197  00000+0 -25960-1 0  9994
2 63802  42.9998 247.4663 0001125 268.7922  14.0656 15.53319303  4806
STARLINK-33951          
1 63803U 25091AD  25144.83335648 -.01517109  00000+0 -26656-1 0  9994
2 63803  42.9997 245.9931 0001199 266.8967 337.1649 15.52513253  4749
STARLINK-33909          
1 63804U 25092A   25144.58335648 -.01685094  00000+0 -22979-1 0  9991
2 63804  43.0001   9.2919 0001551 268.1952  75.9370 15.59581847  4385
STARLINK-34029          
1 63805U 25092B   25144.83335648 -.01723135  00000+0 -24388-1 0  9995
2 63805  43.0000   7.8096 0001284 267.8756  43.0674 15.58682788  4384
STARLINK-34102          
1 63806U 25092C   25144.83335648 -.01723769  00000+0 -24398-1 0  9990
2 63806  43.0000   7.8044 0001267 266.3782  46.4822 15.58682980  4434
STARLINK-34109          
1 63807U 25092D   25144.83335648 -.01727383  00000+0 -24454-1 0  9990
2 63807  43.0000   7.7996 0001308 270.3132  44.4662 15.58683868  4380
STARLINK-34091          
1 63808U 25092E   25144.83335648 -.01726432  00000+0 -24439-1 0  9998
2 63808  42.9999   7.7946 0001333 270.7506  45.9448 15.58683579  4442
STARLINK-34095          
1 63809U 25092F   25144.83335648 -.01726052  00000+0 -24434-1 0  9992
2 63809  42.9999   7.7895 0001265 267.1938  51.4197 15.58683119  4385
STARLINK-34127          
1 63810U 25092G   25144.83335648 -.01728478  00000+0 -24469-1 0  9996
2 63810  43.0000   7.7846 0001411 272.4168  48.1110 15.58685406  4384
STARLINK-34110          
1 63811U 25092H   25144.83335648 -.01730758  00000+0 -24504-1 0  9991
2 63811  42.9999   7.7801 0001395 273.5730  48.8720 15.58686714  4432
